start=new Date('2023-02-02T00:00:00.000Z').valueOf();
sats=[{"BSTAR":"0.00011078000000","REF_FRAME":"TEME","SEMIMAJOR_AXIS":"6941.126","MEAN_MOTION_DDOT":"0.0000000000000","EPHEMERIS_TYPE":"0","SITE":"AFWTR","OBJECT_ID":"2022-105AS","RA_OF_ASC_NODE":"275.5690","TLE_LINE2":"2 53688  97.6580 275.5690 0001769  89.6820 270.4607 15.01266799 23385","GP_ID":"224199200","MEAN_MOTION_DOT":"0.00001364","FILE":"3767525","CENTER_NAME":"EARTH","LAUNCH_DATE":"2022-08-31","DECAY_DATE":null,"PERIAPSIS":"561.763","ARG_OF_PERICENTER":"89.6820","ELEMENT_SET_NO":"999","CLASSIFICATION_TYPE":"U","REV_AT_EPOCH":"2338","INCLINATION":"97.6580","MEAN_ELEMENT_THEORY":"SGP4","PERIOD":"95.919","MEAN_MOTION":"15.01266799","OBJECT_NAME":"STARLINK-4571","TIME_SYSTEM":"UTC","ECCENTRICITY":"0.00017690","NORAD_CAT_ID":"53688","MEAN_ANOMALY":"270.4607","EPOCH":"2023-02-01T13:29:03.632640","COUNTRY_CODE":"US","TLE_LINE1":"1 53688U 22105AS  23032.56184760  .00001364  00000-0  11078-3 0  9991","RCS_SIZE":"LARGE","OBJECT_TYPE":"PAYLOAD","APOAPSIS":"564.219"},{"OBJECT_TYPE":"PAYLOAD","APOAPSIS":"564.267","RCS_SIZE":"LARGE","TLE_LINE1":"1 53689U 22105AT  23032.56370100  .00002236  00000-0  17860-3 0  9991","COUNTRY_CODE":"US","EPOCH":"2023-02-01T13:31:43.766400","MEAN_ANOMALY":"271.2042","NORAD_CAT_ID":"53689","ECCENTRICITY":"0.00018360","TIME_SYSTEM":"UTC","OBJECT_NAME":"STARLINK-4562","PERIOD":"95.919","MEAN_MOTION":"15.01266202","MEAN_ELEMENT_THEORY":"SGP4","REV_AT_EPOCH":"2338","INCLINATION":"97.6575","CLASSIFICATION_TYPE":"U","ELEMENT_SET_NO":"999","ARG_OF_PERICENTER":"88.9393","DECAY_DATE":null,"PERIAPSIS":"561.718","LAUNCH_DATE":"2022-08-31","FILE":"3767525","CENTER_NAME":"EARTH","MEAN_MOTION_DOT":"0.00002236","GP_ID":"224199450","TLE_LINE2":"2 53689  97.6575 275.5686 0001836  88.9393 271.2042 15.01266202 23388","OBJECT_ID":"2022-105AT","RA_OF_ASC_NODE":"275.5686","EPHEMERIS_TYPE":"0","SITE":"AFWTR","MEAN_MOTION_DDOT":"0.0000000000000","SEMIMAJOR_AXIS":"6941.128","BSTAR":"0.00017860000000","REF_FRAME":"TEME"},{"SITE":"AFWTR","EPHEMERIS_TYPE":"0","BSTAR":"0.00025302000000","REF_FRAME":"TEME","SEMIMAJOR_AXIS":"6941.110","MEAN_MOTION_DDOT":"0.0000000000000","GP_ID":"224200202","RA_OF_ASC_NODE":"275.5699","OBJECT_ID":"2022-105AU","TLE_LINE2":"2 53690  97.6583 275.5699 0002178  83.8534 276.2938 15.01271976 23387","DECAY_DATE":null,"PERIAPSIS":"561.463","ARG_OF_PERICENTER":"83.8534","MEAN_MOTION_DOT":"0.00003193","FILE":"3767525","LAUNCH_DATE":"2022-08-31","CENTER_NAME":"EARTH","MEAN_ELEMENT_THEORY":"SGP4","REV_AT_EPOCH":"2338","INCLINATION":"97.6583","CLASSIFICATION_TYPE":"U","ELEMENT_SET_NO":"999","OBJECT_NAME":"STARLINK-4570","MEAN_MOTION":"15.01271976","PERIOD":"95.919","NORAD_CAT_ID":"53690","MEAN_ANOMALY":"276.2938","TIME_SYSTEM":"UTC","ECCENTRICITY":"0.00021780","TLE_LINE1":"1 53690U 22105AU  23032.55999538  .00003193  00000-0  25302-3 0  9997","EPOCH":"2023-02-01T13:26:23.600832","COUNTRY_CODE":"US","RCS_SIZE":"LARGE","APOAPSIS":"564.487","OBJECT_TYPE":"PAYLOAD"},{"GP_ID":"224200952","RA_OF_ASC_NODE":"275.5720","OBJECT_ID":"2022-105AV","TLE_LINE2":"2 53691  97.6586 275.5720 0001869  90.7240 269.4198 15.01264334 23385","SITE":"AFWTR","EPHEMERIS_TYPE":"0","REF_FRAME":"TEME","BSTAR":"0.00013519000000","SEMIMAJOR_AXIS":"6941.133","MEAN_MOTION_DDOT":"0.0000000000000","REV_AT_EPOCH":"2338","INCLINATION":"97.6586","MEAN_ELEMENT_THEORY":"SGP4","CLASSIFICATION_TYPE":"U","ELEMENT_SET_NO":"999","PERIAPSIS":"561.701","DECAY_DATE":null,"ARG_OF_PERICENTER":"90.7240","MEAN_MOTION_DOT":"0.00001678","LAUNCH_DATE":"2022-08-31","FILE":"3767525","CENTER_NAME":"EARTH","NORAD_CAT_ID":"53691","MEAN_ANOMALY":"269.4198","ECCENTRICITY":"0.00018690","TIME_SYSTEM":"UTC","OBJECT_NAME":"STARLINK-4560","PERIOD":"95.919","MEAN_MOTION":"15.01264334","RCS_SIZE":"LARGE","APOAPSIS":"564.296","OBJECT_TYPE":"PAYLOAD","TLE_LINE1":"1 53691U 22105AV  23032.56024386  .00001678  00000-0  13519-3 0  9992","EPOCH":"2023-02-01T13:26:45.069504","COUNTRY_CODE":"US"},{"PERIOD":"95.919","MEAN_MOTION":"15.01264611","OBJECT_NAME":"STARLINK-4572","ECCENTRICITY":"0.00020040","TIME_SYSTEM":"UTC","MEAN_ANOMALY":"268.3587","NORAD_CAT_ID":"53692","COUNTRY_CODE":"US","EPOCH":"2023-02-01T13:23:43.764288","TLE_LINE1":"1 53692U 22105AW  23032.55814542  .00000781  00000-0  65416-4 0  9991","OBJECT_TYPE":"PAYLOAD","APOAPSIS":"564.389","RCS_SIZE":"LARGE","MEAN_MOTION_DDOT":"0.0000000000000","SEMIMAJOR_AXIS":"6941.133","BSTAR":"0.00006541600000","REF_FRAME":"TEME","EPHEMERIS_TYPE":"0","SITE":"AFWTR","TLE_LINE2":"2 53692  97.6582 275.5704 0002004  91.7867 268.3587 15.01264611 23380","RA_OF_ASC_NODE":"275.5704","OBJECT_ID":"2022-105AW","GP_ID":"224199700","CENTER_NAME":"EARTH","FILE":"3767525","LAUNCH_DATE":"2022-08-31","MEAN_MOTION_DOT":"0.00000781","ARG_OF_PERICENTER":"91.7867","DECAY_DATE":null,"PERIAPSIS":"561.607","ELEMENT_SET_NO":"999","CLASSIFICATION_TYPE":"U","MEAN_ELEMENT_THEORY":"SGP4","REV_AT_EPOCH":"2338","INCLINATION":"97.6582"},{"MEAN_MOTION_DDOT":"0.0000000000000","SEMIMAJOR_AXIS":"6941.115","REF_FRAME":"TEME","BSTAR":"0.00037111000000","SITE":"AFWTR","EPHEMERIS_TYPE":"0","TLE_LINE2":"2 53693  97.6589 275.5698 0002069  88.0360 272.1102 15.01270179 23380","RA_OF_ASC_NODE":"275.5698","OBJECT_ID":"2022-105AX","GP_ID":"224199950","LAUNCH_DATE":"2022-08-31","FILE":"3767525","CENTER_NAME":"EARTH","MEAN_MOTION_DOT":"0.00004712","ARG_OF_PERICENTER":"88.0360","DECAY_DATE":null,"PERIAPSIS":"561.544","ELEMENT_SET_NO":"999","CLASSIFICATION_TYPE":"U","REV_AT_EPOCH":"2338","INCLINATION":"97.6589","MEAN_ELEMENT_THEORY":"SGP4","MEAN_MOTION":"15.01270179","PERIOD":"95.919","OBJECT_NAME":"STARLINK-4566","TIME_SYSTEM":"UTC","ECCENTRICITY":"0.00020690","MEAN_ANOMALY":"272.1102","NORAD_CAT_ID":"53693","COUNTRY_CODE":"US","EPOCH":"2023-02-01T13:21:03.760992","TLE_LINE1":"1 53693U 22105AX  23032.55629353  .00004712  00000-0  37111-3 0  9994","APOAPSIS":"564.417","OBJECT_TYPE":"PAYLOAD","RCS_SIZE":"LARGE"},{"OBJECT_TYPE":"PAYLOAD","APOAPSIS":"540.738","RCS_SIZE":"LARGE","COUNTRY_CODE":"US","EPOCH":"2023-02-01T03:31:36.648480","TLE_LINE1":"1 53700U 22107A   23032.14695195  .00002075  00000-0  14839-3 0  9999","TIME_SYSTEM":"UTC","ECCENTRICITY":"0.00014430","MEAN_ANOMALY":"276.5855","NORAD_CAT_ID":"53700","MEAN_MOTION":"15.08841908","PERIOD":"95.437","OBJECT_NAME":"STARLINK-4725","ELEMENT_SET_NO":"999","CLASSIFICATION_TYPE":"U","REV_AT_EPOCH":"2388","INCLINATION":"53.2167","MEAN_ELEMENT_THEORY":"SGP4","FILE":"3767525","CENTER_NAME":"EARTH","LAUNCH_DATE":"2022-09-05","MEAN_MOTION_DOT":"0.00002075","ARG_OF_PERICENTER":"83.5302","DECAY_DATE":null,"PERIAPSIS":"538.741","TLE_LINE2":"2 53700  53.2167 287.9281 0001443  83.5302 276.5855 15.08841908 23884","RA_OF_ASC_NODE":"287.9281","OBJECT_ID":"2022-107A","GP_ID":"224199201","MEAN_MOTION_DDOT":"0.0000000000000","SEMIMAJOR_AXIS":"6917.875","REF_FRAME":"TEME","BSTAR":"0.00014839000000","SITE":"AFETR","EPHEMERIS_TYPE":"0"},{"TLE_LINE2":"2 53701  53.2168 288.4943 0001163  79.4762 280.6361 15.08844309 23864","RA_OF_ASC_NODE":"288.4943","OBJECT_ID":"2022-107B","GP_ID":"224199451","MEAN_MOTION_DDOT":"0.0000000000000","SEMIMAJOR_AXIS":"6917.867","BSTAR":"0.00003003600000","REF_FRAME":"TEME","EPHEMERIS_TYPE":"0","SITE":"AFETR","ELEMENT_SET_NO":"999","CLASSIFICATION_TYPE":"U","REV_AT_EPOCH":"2386","MEAN_ELEMENT_THEORY":"SGP4","INCLINATION":"53.2168","FILE":"3767525","CENTER_NAME":"EARTH","LAUNCH_DATE":"2022-09-05","MEAN_MOTION_DOT":"0.00000190","ARG_OF_PERICENTER":"79.4762","DECAY_DATE":null,"PERIAPSIS":"538.928","ECCENTRICITY":"0.00011630","TIME_SYSTEM":"UTC","MEAN_ANOMALY":"280.6361","NORAD_CAT_ID":"53701","PERIOD":"95.437","MEAN_MOTION":"15.08844309","OBJECT_NAME":"STARLINK-4711","OBJECT_TYPE":"PAYLOAD","APOAPSIS":"540.537","RCS_SIZE":"MEDIUM","COUNTRY_CODE":"US","EPOCH":"2023-02-01T00:15:32.246496","TLE_LINE1":"1 53701U 22107B   23032.01078989  .00000190  00000-0  30036-4 0  9996"},{"CLASSIFICATION_TYPE":"U","ELEMENT_SET_NO":"999","INCLINATION":"53.2140","REV_AT_EPOCH":"2410","MEAN_ELEMENT_THEORY":"SGP4","FILE":"3767525","LAUNCH_DATE":"2022-09-05","CENTER_NAME":"EARTH","MEAN_MOTION_DOT":"0.00002745","ARG_OF_PERICENTER":"89.5478","PERIAPSIS":"538.770","DECAY_DATE":null,"TLE_LINE2":"2 53702  53.2140 273.8342 0001388  89.5478 270.5673 15.08844996 24105","RA_OF_ASC_NODE":"273.8342","OBJECT_ID":"2022-107C","GP_ID":"224200203","MEAN_MOTION_DDOT":"0.0000000000000","BSTAR":"0.00019047000000","REF_FRAME":"TEME","SEMIMAJOR_AXIS":"6917.865","SITE":"AFETR","EPHEMERIS_TYPE":"0","OBJECT_TYPE":"PAYLOAD","APOAPSIS":"540.690","RCS_SIZE":"LARGE","EPOCH":"2023-02-01T01:25:14.659680","COUNTRY_CODE":"US","TLE_LINE1":"1 53702U 22107C   23032.05919745  .00002745  00000-0  19047-3 0  9991","ECCENTRICITY":"0.00013880","TIME_SYSTEM":"UTC","MEAN_ANOMALY":"270.5673","NORAD_CAT_ID":"53702","PERIOD":"95.437","MEAN_MOTION":"15.08844996","OBJECT_NAME":"STARLINK-4724"},{"SEMIMAJOR_AXIS":"6917.846","REF_FRAME":"TEME","BSTAR":"0.00017099000000","MEAN_MOTION_DDOT":"0.0000000000000","SITE":"AFETR","EPHEMERIS_TYPE":"0","RA_OF_ASC_NODE":"288.3025","OBJECT_ID":"2022-107D","TLE_LINE2":"2 53703  53.2170 288.3025 0001098 105.3040 254.8074 15.08851118 23875","GP_ID":"224200953","MEAN_MOTION_DOT":"0.00002435","FILE":"3767525","LAUNCH_DATE":"2022-09-05","CENTER_NAME":"EARTH","PERIAPSIS":"538.952","DECAY_DATE":null,"ARG_OF_PERICENTER":"105.3040","CLASSIFICATION_TYPE":"U","ELEMENT_SET_NO":"999","MEAN_ELEMENT_THEORY":"SGP4","REV_AT_EPOCH":"2387","INCLINATION":"53.2170","PERIOD":"95.437","MEAN_MOTION":"15.08851118","OBJECT_NAME":"STARLINK-4731","TIME_SYSTEM":"UTC","ECCENTRICITY":"0.00010980","NORAD_CAT_ID":"53703","MEAN_ANOMALY":"254.8074","COUNTRY_CODE":"US","EPOCH":"2023-02-01T02:13:31.162656","TLE_LINE1":"1 53703U 22107D   23032.09272179  .00002435  00000-0  17099-3 0  9990","RCS_SIZE":"LARGE","APOAPSIS":"540.471","OBJECT_TYPE":"PAYLOAD"}];
